[{"OBJECT_NAME":"DAMPE","OBJECT_ID":"2015-078A","EPOCH":"2026-03-09T23:55:00.527232","MEAN_MOTION":15.30502084,"ECCENTRICITY":0.00138005,"INCLINATION":97.4588,"RA_OF_ASC_NODE":73.9866,"ARG_OF_PERICENTER":70.6942,"MEAN_ANOMALY":289.579,"EPHEMERIS_TYPE":0,"CLASSIFICATION_TYPE":"U","NORAD_CAT_ID":41173,"ELEMENT_SET_NO":999,"REV_AT_EPOCH":56937,"BSTAR":9.1158173e-5,"MEAN_MOTION_DOT":2.617e-5,"MEAN_MOTION_DDOT":0},{"OBJECT_NAME":"STARLINK-31228","OBJECT_ID":"2024-017S","EPOCH":"2026-03-09T16:21:34.540992","MEAN_MOTION":15.30186757,"ECCENTRICITY":0.00011148,"INCLINATION":53.1605,"RA_OF_ASC_NODE":204.4502,"ARG_OF_PERICENTER":91.7379,"MEAN_ANOMALY":268.3749,"EPHEMERIS_TYPE":0,"CLASSIFICATION_TYPE":"U","NORAD_CAT_ID":58842,"ELEMENT_SET_NO":999,"REV_AT_EPOCH":12005,"BSTAR":1.6503119e-5,"MEAN_MOTION_DOT":1.3e-6,"MEAN_MOTION_DDOT":0}]
